STARLINK-2443           
1 48107U 21027R   21148.91667824 -.00088837  00000-0 -63467-3 0  9996
2 48107  53.0484  85.7859 0002468  26.3161 198.4397 15.73212264  8920
STARLINK-2444           
1 48108U 21027S   21148.91667824 -.00048258  00000-0 -34102-3 0  9994
2 48108  53.0485  85.7610 0003271  16.2898 219.8917 15.73212019  8929
STARLINK-2445           
1 48109U 21027T   21148.58334491 -.01164368  00000-0 -49078-1 0  9997
2 48109  53.0480  90.6991 0001191  82.6664 231.5680 15.25585901  1818
STARLINK-2447           
1 48110U 21027U   21148.91667824 -.00101573  00000-0 -72583-3 0  9992
2 48110  53.0485  85.7707 0002181  29.9654 201.7435 15.73263499  8922
STARLINK-2448           
1 48111U 21027V   21148.58334491 -.01027271  00000-0 -82985-2 0  9996
2 48111  53.0496  87.4240 0002326  21.3766 123.6424 15.72654736  1815
STARLINK-2449           
1 48112U 21027W   21148.58334491 -.00054658  00000-0 -36754-2 0  9998
2 48112  53.0481  95.1505 0001399  71.7038  88.2929 15.06433619  1795
STARLINK-2450           
1 48113U 21027X   21148.58334491 -.01161389  00000-0 -51234-1 0  9999
2 48113  53.0472  90.7216 0001439  69.9722 125.0600 15.24065969  1807
STARLINK-2451           
1 48114U 21027Y   21148.58334491 -.01084413  00000-0 -20029-1 0  9990
2 48114  53.0497  88.2228 0001279  78.7880  63.9502 15.51325665  1819
STARLINK-2452           
1 48115U 21027Z   21148.58334491 -.01027137  00000-0 -82812-2 0  9990
2 48115  53.0498  87.4281 0002689  15.5721 128.2138 15.72695951  1811
STARLINK-2454           
1 48116U 21027AA  21148.58334491 -.01161648  00000-0 -50961-1 0  9996
2 48116  53.0465  90.6961 0001458  66.5922 143.4245 15.24251844  1802
STARLINK-2455           
1 48117U 21027AB  21148.91667824 -.00098277  00000-0 -70425-3 0  9998
2 48117  53.0484  85.7804 0002283  21.9633 205.4060 15.73183996  8926
STARLINK-2458           
1 48118U 21027AC  21148.58334491  .01022698  00000-0  67375-2 0  9995
2 48118  53.0497  87.4388 0002206  31.8275 104.6857 15.72590011  1818
STARLINK-2459           
1 48119U 21027AD  21148.91667824 -.00101057  00000-0 -72261-3 0  9991
2 48119  53.0484  85.7831 0002408  26.0394 199.9893 15.73245247  8926
STARLINK-2460           
1 48120U 21027AE  21148.58334491 -.01163244  00000-0 -49885-1 0  9998
2 48120  53.0472  90.6680 0001286  81.2006 188.7799 15.25011144  1803
STARLINK-2462           
1 48121U 21027AF  21148.91667824 -.00152606  00000-0 -11006-2 0  9999
2 48121  53.0483  85.7617 0002231  21.9724 213.5628 15.73236888  8925
STARLINK-2463           
1 48122U 21027AG  21148.91667824  .00003508  00000-0  29427-4 0  9992
2 48122  53.0484  85.7719 0003100  18.4101 212.7174 15.73192146  8921
STARLINK-2464           
1 48123U 21027AH  21148.91667824  .00003188  00000-0  27141-4 0  9998
2 48123  53.0484  85.7774 0002455  22.0154 206.5478 15.73196328  8928
STARLINK-2465           
1 48124U 21027AJ  21148.91667824  .00004266  00000-0  34811-4 0  9999
2 48124  53.0485  85.7593 0002489  25.4621 211.3627 15.73198072  8920
STARLINK-2466           
1 48125U 21027AK  21148.58334491 -.01066057  00000-0 -42647-1 0  9996
2 48125  53.0488  90.8605 0001183  80.5053 254.3031 15.27510782  1818
STARLINK-2467           
1 48126U 21027AL  21148.58334491 -.00115291  00000-0 -82668-3 0  9990
2 48126  53.0485  87.4481 0002405  17.7391 114.9554 15.73237671  1810
STARLINK-2468           
1 48127U 21027AM  21148.58334491 -.01162940  00000-0 -50150-1 0  9994
2 48127  53.0456  90.6667 0001319  75.7111 179.3290 15.24825835  1800
STARLINK-2469           
1 48128U 21027AN  21148.91667824  .00006236  00000-0  48821-4 0  9998
2 48128  53.0483  85.8021 0002270  17.4451 199.7025 15.73196826  8925
STARLINK-2471           
1 48129U 21027AP  21148.58334491 -.01163823  00000-0 -49635-1 0  9993
2 48129  53.0469  90.6811 0001279  71.2422 213.7104 15.25195415  1800
STARLINK-2472           
1 48130U 21027AQ  21148.58334491 -.00080952  00000-0 -54629-2 0  9995
2 48130  53.0489  95.1494 0001475  65.6975 174.1977 15.06501048  1797
STARLINK-2473           
1 48131U 21027AR  21148.91667824 -.00111084  00000-0 -79743-3 0  9998
2 48131  53.0483  85.7893 0002014  21.8384 201.1082 15.73196461  8921
STARLINK-2474           
1 48132U 21027AS  21148.58334491 -.01064648  00000-0 -43699-1 0  9996
2 48132  53.0479  90.8116 0001272  78.0061 198.8873 15.26665914  1805
STARLINK-2475           
1 48133U 21027AT  21148.58334491 -.01064794  00000-0 -43453-1 0  9997
2 48133  53.0483  90.8196 0001288  69.6408 221.4656 15.26855728  1803
STARLINK-2476           
1 48134U 21027AU  21148.58334491 -.01066147  00000-0 -42548-1 0  9996
2 48134  53.0497  90.8235 0001166  79.9792 266.9522 15.27589708  1807
STARLINK-2478           
1 48135U 21027AV  21148.58334491 -.00081327  00000-0 -54839-2 0  9990
2 48135  53.0507  95.2038 0001396  75.1621 344.6481 15.06532761  1806
STARLINK-2479           
1 48136U 21027AW  21148.58334491 -.01164175  00000-0 -49356-1 0  9992
2 48136  53.0475  90.6894 0001232  74.7719 224.6909 15.25393067  1809
STARLINK-2480           
1 48137U 21027AX  21148.91667824  .00001895  00000-0  17915-4 0  9994
2 48137  53.0485  85.7874 0002470  23.6996 200.3970 15.73222493  8925
STARLINK-2481           
1 48138U 21027AY  21148.58334491 -.01065167  00000-0 -43235-1 0  9995
2 48138  53.0482  90.8348 0001218  81.2315 223.7925 15.27033342  1801
STARLINK-2482           
1 48139U 21027AZ  21148.58334491 -.00108211  00000-0 -77514-3 0  9992
2 48139  53.0483  87.4276 0002335  14.3659 127.2532 15.73233614  1812
STARLINK-2483           
1 48140U 21027BA  21148.58334491 -.01162797  00000-0 -50196-1 0  9999
2 48140  53.0448  90.6593 0001335  71.8391 189.0262 15.24790878  1804
STARLINK-2484           
1 48141U 21027BB  21148.58334491 -.01066917  00000-0 -42101-1 0  9994
2 48141  53.0502  90.7405 0001199  75.2252 299.6745 15.27959182  1803
STARLINK-2485           
1 48142U 21027BC  21148.91667824 -.00000160  00000-0  32919-5 0  9997
2 48142  53.0484  85.8002 0002217  30.3391 188.0650 15.73198890  8927
STARLINK-2486           
1 48143U 21027BD  21148.58334491 -.00109232  00000-0 -78216-3 0  9991
2 48143  53.0486  87.4596 0002316  23.6284 103.9585 15.73246482  1817
STARLINK-2487           
1 48144U 21027BE  21148.58334491 -.00082040  00000-0 -58478-3 0  9997
2 48144  53.0484  87.4298 0002524  10.7005 130.1731 15.73232443  1811
STARLINK-2488           
1 48145U 21027BF  21148.91667824 -.00005664  00000-0 -35952-4 0  9994
2 48145  53.0484  85.7757 0002469  23.8814 205.3235 15.73191269  8927
STARLINK-2489           
1 48146U 21027BG  21148.58334491 -.01065506  00000-0 -42999-1 0  9997
2 48146  53.0490  90.8418 0001190  79.9005 239.2360 15.27223885  1815
STARLINK-2490           
1 48147U 21027BH  21148.58334491 -.00077588  00000-0 -52385-2 0  9991
2 48147  53.0461  95.1518 0001395  74.8485 185.1232 15.06459645  1792
STARLINK-2491           
1 48148U 21027BJ  21148.58334491 -.01162452  00000-0 -50422-1 0  9997
2 48148  53.0465  90.6876 0001370  72.1560 167.8468 15.24630898  1803
STARLINK-2492           
1 48149U 21027BK  21148.58334491 -.00110133  00000-0 -78884-3 0  9990
2 48149  53.0485  87.4508 0002454  17.8054 113.6437 15.73242657  1812
STARLINK-2493           
1 48150U 21027BL  21148.58334491  .00030347  00000-0  22003-3 0  9990
2 48150  53.0485  87.4532 0002379  22.8826 107.8550 15.73176652  1812
STARLINK-2503           
1 48151U 21027BM  21148.91667824 -.00099326  00000-0 -71067-3 0  9995
2 48151  53.0486  85.7992 0002119  31.7936 187.2197 15.73225068  8922
SHIYAN 6 03 (SY-6 03)   
1 48157U 21028A   21148.85713345 -.00000046  00000-0 -19721-5 0  9997
2 48157  99.5054 156.7922 0009100 131.0673 229.1261 13.70851812  6849
SOYUZ-MS 18             
1 48159U 21029A   21148.56789481  .00000092  00000-0  98608-5 0  9992
2 48159  51.6440  79.7620 0003327  42.1766 130.6151 15.48927353285550
CREW DRAGON 2           
1 48209U 21030A   21148.56789481  .00000092  00000-0  98608-5 0  9990
2 48209  51.6440  79.7620 0003327  42.1766 130.6151 15.48927353285556
ONEWEB-0176             
1 48210U 21031A   21148.83335648 -.01096885  00000-0 -88834-1 0  9999
2 48210  87.4883 301.6835 0008637 145.8560 182.7205 15.02797885  6322
ONEWEB-0184             
1 48211U 21031B   21148.83335648 -.01108812  00000-0 -10403+0 0  9999
2 48211  87.4650 301.7165 0011003 133.3601 189.1649 14.97192706  5024
ONEWEB-0179             
1 48212U 21031C   21148.83335648 -.01070606  00000-0 -80882-1 0  9999
2 48212  87.4945 301.6843 0010866 152.0397 147.7391 15.05296745  5044
ONEWEB-0180             
1 48213U 21031D   21148.83335648 -.01055876  00000-0 -11942+0 0  9991
2 48213  87.4483 301.7807 0008916 139.1615 348.3053 14.89707670  5011
ONEWEB-0218             
1 48214U 21031E   21148.58334491 -.01177570  00000-0 -80049-1 0  9991
2 48214  87.5075 301.7192 0013048 123.7294 323.1574 15.09422145  1818
ONEWEB-0209             
1 48215U 21031F   21148.83335648 -.01073613  00000-0 -81775-1 0  9995
2 48215  87.5022 301.6774 0010577 141.8092 328.5606 15.05004915  5048
ONEWEB-0198             
1 48216U 21031G   21148.83335648 -.01101558  00000-0 -92584-1 0  9996
2 48216  87.4790 301.6822 0008126 136.8481 112.8320 15.01416672  5025
ONEWEB-0189             
1 48217U 21031H   21148.58334491 -.01224547  00000-0 -11459+0 0  9998
2 48217  87.4839 301.8238 0011815 141.3588 203.4634 14.97089703  1768
ONEWEB-0196             
1 48218U 21031J   21148.83335648 -.01120707  00000-0 -12323+0 0  9996
2 48218  87.4331 301.7498 0008906 143.0196  47.5215 14.90527887  5011
ONEWEB-0183             
1 48219U 21031K   21148.83335648 -.01094446  00000-0 -92391-1 0  9992
2 48219  87.4800 301.6914 0007941 139.7045  94.4095 15.01232680  5034
ONEWEB-0185             
1 48220U 21031L   21148.83335648 -.01112501  00000-0 -10208+0 0  9992
2 48220  87.4848 301.7293 0010664 129.4184 243.3047 14.98065682  5027
